start=new Date('2023-05-16T00:00:00.000Z').valueOf();
sats=[{"CENTER_NAME":"EARTH","NORAD_CAT_ID":"48674","BSTAR":"0.00012219000000","COUNTRY_CODE":"US","FILE":"3908681","PERIOD":"95.592","CLASSIFICATION_TYPE":"U","PERIAPSIS":"545.829","MEAN_MOTION":"15.06403792","OBJECT_TYPE":"PAYLOAD","ARG_OF_PERICENTER":"80.3991","INCLINATION":"53.0547","RA_OF_ASC_NODE":"51.7881","ECCENTRICITY":"0.00019820","MEAN_ELEMENT_THEORY":"SGP4","APOAPSIS":"548.575","ELEMENT_SET_NO":"999","LAUNCH_DATE":"2021-05-26","DECAY_DATE":null,"REF_FRAME":"TEME","MEAN_MOTION_DDOT":"0.0000000000000","TLE_LINE1":"1 48674U 21044AN  23135.50638589  .00001539  00000-0  12219-3 0  9994","GP_ID":"231894422","SITE":"AFETR","TLE_LINE2":"2 48674  53.0547  51.7881 0001982  80.3991 279.7221 15.06403792108720","TIME_SYSTEM":"UTC","EPHEMERIS_TYPE":"0","REV_AT_EPOCH":"10872","MEAN_MOTION_DOT":"0.00001539","RCS_SIZE":"LARGE","SEMIMAJOR_AXIS":"6925.337","OBJECT_ID":"2021-044AN","OBJECT_NAME":"STARLINK-2712","MEAN_ANOMALY":"279.7221","EPOCH":"2023-05-15T12:09:11.740896"},{"EPHEMERIS_TYPE":"0","SITE":"AFETR","GP_ID":"231892674","TLE_LINE2":"2 48675  53.0548  51.8099 0001497  90.1754 269.9407 15.06470926108721","TIME_SYSTEM":"UTC","EPOCH":"2023-05-15T12:05:12.871680","OBJECT_NAME":"STARLINK-2737","MEAN_ANOMALY":"269.9407","MEAN_MOTION_DOT":"0.00023056","RCS_SIZE":"MEDIUM","SEMIMAJOR_AXIS":"6925.131","OBJECT_ID":"2021-044AP","REV_AT_EPOCH":"10872","OBJECT_TYPE":"PAYLOAD","ARG_OF_PERICENTER":"90.1754","RA_OF_ASC_NODE":"51.8099","ECCENTRICITY":"0.00014970","INCLINATION":"53.0548","PERIOD":"95.588","CLASSIFICATION_TYPE":"U","PERIAPSIS":"545.959","MEAN_MOTION":"15.06470926","BSTAR":"0.00155870000000","COUNTRY_CODE":"US","FILE":"3908681","CENTER_NAME":"EARTH","NORAD_CAT_ID":"48675","MEAN_MOTION_DDOT":"0.0000000000000","TLE_LINE1":"1 48675U 21044AP  23135.50362120  .00023056  00000-0  15587-2 0  9998","REF_FRAME":"TEME","DECAY_DATE":null,"LAUNCH_DATE":"2021-05-26","MEAN_ELEMENT_THEORY":"SGP4","APOAPSIS":"548.033","ELEMENT_SET_NO":"999"},{"EPOCH":"2023-05-15T04:02:14.169120","MEAN_ANOMALY":"257.3956","OBJECT_NAME":"STARLINK-2746","OBJECT_ID":"2021-044AQ","SEMIMAJOR_AXIS":"6925.263","MEAN_MOTION_DOT":"0.00019972","RCS_SIZE":"LARGE","REV_AT_EPOCH":"10867","EPHEMERIS_TYPE":"0","TIME_SYSTEM":"UTC","TLE_LINE2":"2 48676  53.0545  53.3183 0001248 102.7172 257.3956 15.06427936108675","SITE":"AFETR","GP_ID":"231892924","MEAN_MOTION_DDOT":"0.0000000000000","TLE_LINE1":"1 48676U 21044AQ  23135.16821955  .00019972  00000-0  13549-2 0  9995","REF_FRAME":"TEME","LAUNCH_DATE":"2021-05-26","DECAY_DATE":null,"ELEMENT_SET_NO":"999","APOAPSIS":"547.992","MEAN_ELEMENT_THEORY":"SGP4","ECCENTRICITY":"0.00012480","RA_OF_ASC_NODE":"53.3183","INCLINATION":"53.0545","ARG_OF_PERICENTER":"102.7172","OBJECT_TYPE":"PAYLOAD","MEAN_MOTION":"15.06427936","PERIAPSIS":"546.264","CLASSIFICATION_TYPE":"U","PERIOD":"95.590","FILE":"3908681","COUNTRY_CODE":"US","BSTAR":"0.00135490000000","NORAD_CAT_ID":"48676","CENTER_NAME":"EARTH"},{"TLE_LINE2":"2 48677  53.0545  51.8311 0001741 137.7152 222.3971 15.06383337108727","TIME_SYSTEM":"UTC","GP_ID":"231894176","SITE":"AFETR","EPHEMERIS_TYPE":"0","REV_AT_EPOCH":"10872","OBJECT_ID":"2021-044AR","MEAN_MOTION_DOT":"0.00006726","RCS_SIZE":"LARGE","SEMIMAJOR_AXIS":"6925.400","MEAN_ANOMALY":"222.3971","OBJECT_NAME":"STARLINK-2719","EPOCH":"2023-05-15T11:53:16.120608","CENTER_NAME":"EARTH","NORAD_CAT_ID":"48677","FILE":"3908681","BSTAR":"0.00047024000000","COUNTRY_CODE":"US","PERIAPSIS":"546.059","MEAN_MOTION":"15.06383337","PERIOD":"95.593","CLASSIFICATION_TYPE":"U","ARG_OF_PERICENTER":"137.7152","ECCENTRICITY":"0.00017410","RA_OF_ASC_NODE":"51.8311","INCLINATION":"53.0545","OBJECT_TYPE":"PAYLOAD","ELEMENT_SET_NO":"999","MEAN_ELEMENT_THEORY":"SGP4","APOAPSIS":"548.470","LAUNCH_DATE":"2021-05-26","DECAY_DATE":null,"REF_FRAME":"TEME","TLE_LINE1":"1 48677U 21044AR  23135.49532547  .00006726  00000-0  47024-3 0  9997","MEAN_MOTION_DDOT":"0.0000000000000"},{"MEAN_ELEMENT_THEORY":"SGP4","APOAPSIS":"548.199","ELEMENT_SET_NO":"999","DECAY_DATE":null,"LAUNCH_DATE":"2021-05-26","REF_FRAME":"TEME","MEAN_MOTION_DDOT":"0.0000000000000","TLE_LINE1":"1 48678U 21044AS  23135.49259079  .00006720  00000-0  46956-3 0  9991","CENTER_NAME":"EARTH","NORAD_CAT_ID":"48678","BSTAR":"0.00046956000000","COUNTRY_CODE":"US","FILE":"3908681","PERIOD":"95.592","CLASSIFICATION_TYPE":"U","PERIAPSIS":"546.214","MEAN_MOTION":"15.06402290","OBJECT_TYPE":"PAYLOAD","ARG_OF_PERICENTER":"74.2796","RA_OF_ASC_NODE":"51.8598","INCLINATION":"53.0557","ECCENTRICITY":"0.00014330","REV_AT_EPOCH":"10872","MEAN_MOTION_DOT":"0.00006720","RCS_SIZE":"LARGE","SEMIMAJOR_AXIS":"6925.342","OBJECT_ID":"2021-044AS","OBJECT_NAME":"STARLINK-2615","MEAN_ANOMALY":"285.8351","EPOCH":"2023-05-15T11:49:19.844256","GP_ID":"231893922","SITE":"AFETR","TLE_LINE2":"2 48678  53.0557  51.8598 0001433  74.2796 285.8351 15.06402290108721","TIME_SYSTEM":"UTC","EPHEMERIS_TYPE":"0"},{"MEAN_MOTION_DDOT":"0.0000000000000","TLE_LINE1":"1 48679U 21044AT  23135.48890572  .00007540  00000-0  52451-3 0  9998","REF_FRAME":"TEME","DECAY_DATE":null,"LAUNCH_DATE":"2021-05-26","APOAPSIS":"548.840","MEAN_ELEMENT_THEORY":"SGP4","ELEMENT_SET_NO":"999","OBJECT_TYPE":"PAYLOAD","RA_OF_ASC_NODE":"51.8772","ECCENTRICITY":"0.00023670","INCLINATION":"53.0543","ARG_OF_PERICENTER":"79.7844","CLASSIFICATION_TYPE":"U","PERIOD":"95.592","MEAN_MOTION":"15.06404131","PERIAPSIS":"545.562","COUNTRY_CODE":"US","BSTAR":"0.00052451000000","FILE":"3908681","NORAD_CAT_ID":"48679","CENTER_NAME":"EARTH","EPOCH":"2023-05-15T11:44:01.454208","OBJECT_NAME":"STARLINK-2648","MEAN_ANOMALY":"280.3412","SEMIMAJOR_AXIS":"6925.336","MEAN_MOTION_DOT":"0.00007540","RCS_SIZE":"LARGE","OBJECT_ID":"2021-044AT","REV_AT_EPOCH":"10872","EPHEMERIS_TYPE":"0","SITE":"AFETR","GP_ID":"231893175","TIME_SYSTEM":"UTC","TLE_LINE2":"2 48679  53.0543  51.8772 0002367  79.7844 280.3412 15.06404131108726"},{"EPHEMERIS_TYPE":"0","GP_ID":"231893425","SITE":"AFETR","TIME_SYSTEM":"UTC","TLE_LINE2":"2 48680  53.0549  51.8978 0001971  69.2886 290.8314 15.06401584108728","EPOCH":"2023-05-15T11:38:43.084896","OBJECT_NAME":"STARLINK-2649","MEAN_ANOMALY":"290.8314","SEMIMAJOR_AXIS":"6925.344","MEAN_MOTION_DOT":"-0.00000606","RCS_SIZE":"LARGE","OBJECT_ID":"2021-044AU","REV_AT_EPOCH":"10872","OBJECT_TYPE":"PAYLOAD","RA_OF_ASC_NODE":"51.8978","ECCENTRICITY":"0.00019710","INCLINATION":"53.0549","ARG_OF_PERICENTER":"69.2886","CLASSIFICATION_TYPE":"U","PERIOD":"95.592","MEAN_MOTION":"15.06401584","PERIAPSIS":"545.844","COUNTRY_CODE":"US","BSTAR":"-0.00002179100000","FILE":"3908681","NORAD_CAT_ID":"48680","CENTER_NAME":"EARTH","MEAN_MOTION_DDOT":"0.0000000000000","TLE_LINE1":"1 48680U 21044AU  23135.48522089 -.00000606  00000-0 -21791-4 0  9997","REF_FRAME":"TEME","DECAY_DATE":null,"LAUNCH_DATE":"2021-05-26","APOAPSIS":"548.574","MEAN_ELEMENT_THEORY":"SGP4","ELEMENT_SET_NO":"999"},{"CLASSIFICATION_TYPE":"U","PERIOD":"95.592","MEAN_MOTION":"15.06409089","PERIAPSIS":"546.423","OBJECT_TYPE":"PAYLOAD","ECCENTRICITY":"0.00011020","RA_OF_ASC_NODE":"22.4355","INCLINATION":"53.0558","ARG_OF_PERICENTER":"101.9133","NORAD_CAT_ID":"48681","CENTER_NAME":"EARTH","COUNTRY_CODE":"US","BSTAR":"0.00064511000000","FILE":"3908681","REF_FRAME":"TEME","MEAN_MOTION_DDOT":"0.0000000000000","TLE_LINE1":"1 48681U 21044AV  23135.41797969  .00009343  00000-0  64511-3 0  9993","APOAPSIS":"547.949","MEAN_ELEMENT_THEORY":"SGP4","ELEMENT_SET_NO":"999","DECAY_DATE":null,"LAUNCH_DATE":"2021-05-26","EPHEMERIS_TYPE":"0","SITE":"AFETR","GP_ID":"231893676","TIME_SYSTEM":"UTC","TLE_LINE2":"2 48681  53.0558  22.4355 0001102 101.9133 258.1980 15.06409089109126","OBJECT_NAME":"STARLINK-2725","MEAN_ANOMALY":"258.1980","EPOCH":"2023-05-15T10:01:53.445216","REV_AT_EPOCH":"10912","SEMIMAJOR_AXIS":"6925.321","MEAN_MOTION_DOT":"0.00009343","RCS_SIZE":"LARGE","OBJECT_ID":"2021-044AV"},{"REF_FRAME":"TEME","MEAN_MOTION_DDOT":"0.0000000000000","TLE_LINE1":"1 48682U 21044AW  23135.34884620  .00008871  00000-0  61326-3 0  9993","APOAPSIS":"547.802","MEAN_ELEMENT_THEORY":"SGP4","ELEMENT_SET_NO":"999","LAUNCH_DATE":"2021-05-26","DECAY_DATE":null,"CLASSIFICATION_TYPE":"U","PERIOD":"95.591","MEAN_MOTION":"15.06424599","PERIAPSIS":"546.475","OBJECT_TYPE":"PAYLOAD","RA_OF_ASC_NODE":"12.6725","INCLINATION":"53.0554","ECCENTRICITY":"0.00009580","ARG_OF_PERICENTER":"80.9348","NORAD_CAT_ID":"48682","CENTER_NAME":"EARTH","COUNTRY_CODE":"US","BSTAR":"0.00061326000000","FILE":"3908681","OBJECT_NAME":"STARLINK-2743","MEAN_ANOMALY":"279.1749","EPOCH":"2023-05-15T08:22:20.311680","REV_AT_EPOCH":"10925","SEMIMAJOR_AXIS":"6925.273","RCS_SIZE":"LARGE","MEAN_MOTION_DOT":"0.00008871","OBJECT_ID":"2021-044AW","EPHEMERIS_TYPE":"0","SITE":"AFETR","GP_ID":"231894423","TIME_SYSTEM":"UTC","TLE_LINE2":"2 48682  53.0554  12.6725 0000958  80.9348 279.1749 15.06424599109250"},{"REF_FRAME":"TEME","MEAN_MOTION_DDOT":"0.0000000000000","TLE_LINE1":"1 48683U 21044AX  23135.37094477  .00004256  00000-0  30428-3 0  9992","ELEMENT_SET_NO":"999","MEAN_ELEMENT_THEORY":"SGP4","APOAPSIS":"548.084","LAUNCH_DATE":"2021-05-26","DECAY_DATE":null,"PERIAPSIS":"546.242","MEAN_MOTION":"15.06416483","PERIOD":"95.591","CLASSIFICATION_TYPE":"U","ARG_OF_PERICENTER":"74.7395","ECCENTRICITY":"0.00013300","RA_OF_ASC_NODE":"12.4196","INCLINATION":"53.0552","OBJECT_TYPE":"PAYLOAD","CENTER_NAME":"EARTH","NORAD_CAT_ID":"48683","FILE":"3908681","BSTAR":"0.00030428000000","COUNTRY_CODE":"US","MEAN_ANOMALY":"285.3741","OBJECT_NAME":"STARLINK-2756","EPOCH":"2023-05-15T08:54:09.628128","REV_AT_EPOCH":"10926","OBJECT_ID":"2021-044AX","RCS_SIZE":"LARGE","MEAN_MOTION_DOT":"0.00004256","SEMIMAJOR_AXIS":"6925.298","EPHEMERIS_TYPE":"0","TLE_LINE2":"2 48683  53.0552  12.4196 0001330  74.7395 285.3741 15.06416483109262","TIME_SYSTEM":"UTC","GP_ID":"231892675","SITE":"AFETR"}];
